[{"OBJECT_NAME":"COSMOS 1408 DEB","OBJECT_ID":"1982-092RU","EPOCH":"2026-03-05T05:33:57.298752","MEAN_MOTION":15.46716589,"ECCENTRICITY":0.00136107,"INCLINATION":82.5666,"RA_OF_ASC_NODE":333.8961,"ARG_OF_PERICENTER":274.9709,"MEAN_ANOMALY":84.9987,"EPHEMERIS_TYPE":0,"CLASSIFICATION_TYPE":"U","NORAD_CAT_ID":50032,"ELEMENT_SET_NO":999,"REV_AT_EPOCH":23878,"BSTAR":0.00013804724,"MEAN_MOTION_DOT":6.963e-5,"MEAN_MOTION_DDOT":0},{"OBJECT_NAME":"COSMOS 1408 DEB","OBJECT_ID":"1982-092SW","EPOCH":"2026-03-05T05:46:20.699040","MEAN_MOTION":15.70797033,"ECCENTRICITY":0.00148571,"INCLINATION":82.6144,"RA_OF_ASC_NODE":342.58,"ARG_OF_PERICENTER":138.8937,"MEAN_ANOMALY":221.3448,"EPHEMERIS_TYPE":0,"CLASSIFICATION_TYPE":"U","NORAD_CAT_ID":50058,"ELEMENT_SET_NO":999,"REV_AT_EPOCH":24096,"BSTAR":0.00038272312,"MEAN_MOTION_DOT":0.00047978,"MEAN_MOTION_DDOT":0},{"OBJECT_NAME":"COSMOS 1408 DEB","OBJECT_ID":"1982-092ADS","EPOCH":"2026-03-05T04:44:13.077312","MEAN_MOTION":15.32705844,"ECCENTRICITY":0.01260134,"INCLINATION":82.1968,"RA_OF_ASC_NODE":129.4355,"ARG_OF_PERICENTER":270.188,"MEAN_ANOMALY":88.4922,"EPHEMERIS_TYPE":0,"CLASSIFICATION_TYPE":"U","NORAD_CAT_ID":50404,"ELEMENT_SET_NO":999,"REV_AT_EPOCH":22448,"BSTAR":0.0036812,"MEAN_MOTION_DOT":0.00152133,"MEAN_MOTION_DDOT":0},{"OBJECT_NAME":"COSMOS 1408 DEB","OBJECT_ID":"1982-092ALR","EPOCH":"2026-03-05T05:04:03.434304","MEAN_MOTION":15.62070761,"ECCENTRICITY":0.00231336,"INCLINATION":82.572,"RA_OF_ASC_NODE":347.9834,"ARG_OF_PERICENTER":200.3341,"MEAN_ANOMALY":159.6999,"EPHEMERIS_TYPE":0,"CLASSIFICATION_TYPE":"U","NORAD_CAT_ID":50621,"ELEMENT_SET_NO":999,"REV_AT_EPOCH":23535,"BSTAR":0.00044451312,"MEAN_MOTION_DOT":0.00039532,"MEAN_MOTION_DDOT":0}]
